NORAD_CAT_ID,OBJECT_NAME,OBJECT_TYPE,EPOCH,MEAN_MOTION,ECCENTRICITY,INCLINATION,RA_OF_ASC_NODE,ARG_OF_PERICENTER,MEAN_ANOMALY,BSTAR,MEAN_MOTION_DOT,MEAN_MOTION_DDOT,TLE_LINE0,TLE_LINE1,TLE_LINE2,SEMIMAJOR_AXIS,PERIOD,APOGEE,PERIGEE,DECAYED
53565.0,STARLINK-4575,PAYLOAD,2023-11-07 04:34:37,15.08809544,0.0001183,53.2159,285.7816,78.9218,281.1907,6.0382e-05,6.73e-06,0.0,0 STARLINK-4575,1 53565U 22101AQ  23311.19071049  .00000673  00000-0  60382-4 0  9990,2 53565  53.2159 285.7816 0001183  78.9218 281.1907 15.08809544 67595,6917.973,95.439,540.657,539.02,0.0
53565.0,STARLINK-4575,PAYLOAD,2023-11-07 07:45:24,15.08812281,0.0001256,53.216,285.1878,72.1758,287.9371,0.0016004,0.00025255,0.0,0 STARLINK-4575,1 53565U 22101AQ  23311.32319548  .00025255  00000-0  16004-2 0  9997,2 53565  53.2160 285.1878 0001256  72.1758 287.9371 15.08812281 68272,6917.965,95.439,540.699,538.961,0.0
53565.0,STARLINK-4575,PAYLOAD,2023-11-08 02:50:02,15.08838355,0.0001301,53.2163,281.6189,76.5148,283.5989,0.0016129,0.00025473,0.0,0 STARLINK-4575,1 53565U 22101AQ  23312.11808626  .00025473  00000-0  16129-2 0  9995,2 53565  53.2163 281.6189 0001301  76.5148 283.5989 15.08838355 67730,6917.885,95.438,540.65,538.85,0.0
53565.0,STARLINK-4575,PAYLOAD,2023-11-08 04:25:25,15.08842323,0.0001314,53.2159,281.3213,77.1256,282.9883,0.0015842,0.00025016,0.0,0 STARLINK-4575,1 53565U 22101AQ  23312.18432568  .00025016  00000-0  15842-2 0  9994,2 53565  53.2159 281.3213 0001314  77.1256 282.9883 15.08842323 68402,6917.873,95.437,540.647,538.829,0.0
53565.0,STARLINK-4575,PAYLOAD,2023-11-08 15:33:07,15.088529,0.0001636,53.2158,279.2445,55.6089,304.5058,0.00096302,0.00015077,0.0,0 STARLINK-4575,1 53565U 22101AQ  23312.64800550  .00015077  00000-0  96302-3 0  9992,2 53565  53.2158 279.2445 0001636  55.6089 304.5058 15.08852900 67817,6917.841,95.437,540.838,538.574,0.0
53565.0,STARLINK-4575,PAYLOAD,2023-11-09 04:16:12,15.08853537,0.0001404,53.2176,276.8591,97.4016,262.7135,0.00066558,0.00010324,0.0,0 STARLINK-4575,1 53565U 22101AQ  23313.17792192  .00010324  00000-0  66558-3 0  9993,2 53565  53.2176 276.8591 0001404  97.4016 262.7135 15.08853537 67895,6917.839,95.437,540.675,538.733,0.0
53565.0,STARLINK-4575,PAYLOAD,2023-11-10 02:31:36,15.08851104,0.0001407,53.2182,272.7022,111.2507,248.8636,0.0005159,7.935e-05,0.0,0 STARLINK-4575,1 53565U 22101AQ  23314.10528182  .00007935  00000-0  51590-3 0  9997,2 53565  53.2182 272.7022 0001407 111.2507 248.8636 15.08851104 68035,6917.846,95.437,540.685,538.738,0.0
53565.0,STARLINK-4575,PAYLOAD,2023-11-11 03:57:46,15.08838647,0.0001413,53.2173,267.9363,90.311,269.8044,0.0001684,2.393e-05,0.0,0 STARLINK-4575,1 53565U 22101AQ  23315.16512654  .00002393  00000-0  16840-3 0  9993,2 53565  53.2173 267.9363 0001413  90.3110 269.8044 15.08838647 68193,6917.885,95.438,540.727,538.772,0.0
53565.0,STARLINK-4575,PAYLOAD,2023-11-11 13:30:05,15.08842392,0.0001404,53.2177,266.1549,84.9698,275.1455,0.00012134,1.644e-05,0.0,0 STARLINK-4575,1 53565U 22101AQ  23315.56256605  .00001644  00000-0  12134-3 0  9998,2 53565  53.2177 266.1549 0001404  84.9698 275.1455 15.08842392 68912,6917.873,95.437,540.709,538.767,0.0
53565.0,STARLINK-4575,PAYLOAD,2023-11-11 19:51:38,15.08838718,0.0001471,53.2183,264.9693,97.0536,263.0623,0.00017002,2.419e-05,0.0,0 STARLINK-4575,1 53565U 22101AQ  23315.82752868  .00002419  00000-0  17002-3 0  9999,2 53565  53.2183 264.9693 0001471  97.0536 263.0623 15.08838718 68959,6917.884,95.438,540.767,538.732,0.0
53565.0,STARLINK-4575,PAYLOAD,2023-11-12 03:48:34,15.08834598,0.0001415,53.218,263.4823,96.2859,263.8295,8.2193e-05,1.02e-05,0.0,0 STARLINK-4575,1 53565U 22101AQ  23316.15873111  .00001020  00000-0  82193-4 0  9992,2 53565  53.2180 263.4823 0001415  96.2859 263.8295 15.08834598 68340,6917.897,95.438,540.741,538.783,0.0
53565.0,STARLINK-4575,PAYLOAD,2023-11-12 05:23:57,15.08828201,0.0001573,53.2186,263.1844,97.8917,262.2254,0.00045836,7.012e-05,0.0,0 STARLINK-4575,1 53565U 22101AQ  23316.22497566  .00007012  00000-0  45836-3 0  9995,2 53565  53.2186 263.1844 0001573  97.8917 262.2254 15.08828201 69010,6917.916,95.438,540.87,538.693,0.0
53565.0,STARLINK-4575,PAYLOAD,2023-11-13 06:50:07,15.08845289,0.0001778,53.2184,258.427,89.0552,271.0644,0.00018604,2.674e-05,0.0,0 STARLINK-4575,1 53565U 22101AQ  23317.28481036  .00002674  00000-0  18604-3 0  9999,2 53565  53.2184 258.4270 0001778  89.0552 271.0644 15.08845289 68513,6917.864,95.437,540.959,538.499,0.0
53565.0,STARLINK-4575,PAYLOAD,2023-11-14 01:54:45,15.08844158,0.0001569,53.217,254.8546,92.2853,267.8319,0.00010781,1.428e-05,0.0,0 STARLINK-4575,1 53565U 22101AQ  23318.07969082  .00001428  00000-0  10781-3 0  9993,2 53565  53.2170 254.8546 0001569  92.2853 267.8319 15.08844158 68631,6917.868,95.437,540.818,538.647,0.0
53565.0,STARLINK-4575,PAYLOAD,2023-11-14 13:02:27,15.08841572,0.00016,53.2172,252.774,80.1174,279.9998,4.4384e-05,4.18e-06,0.0,0 STARLINK-4575,1 53565U 22101AQ  23318.54337162  .00000418  00000-0  44384-4 0  9998,2 53565  53.2172 252.7740 0001600  80.1174 279.9998 15.08841572 69369,6917.876,95.437,540.847,538.634,0.0
53565.0,STARLINK-4575,PAYLOAD,2023-11-15 03:20:55,15.08848394,0.0001588,53.2174,250.0967,94.5258,265.5916,0.00011528,1.548e-05,0.0,0 STARLINK-4575,1 53565U 22101AQ  23319.13952928  .00001548  00000-0  11528-3 0  9995,2 53565  53.2174 250.0967 0001588  94.5258 265.5916 15.08848394 68796,6917.855,95.437,540.818,538.621,0.0
53565.0,STARLINK-4575,PAYLOAD,2023-11-15 04:56:18,15.08849901,0.0001633,53.218,249.7995,90.7476,269.3703,8.678e-05,1.094e-05,0.0,0 STARLINK-4575,1 53565U 22101AQ  23319.20576895  .00001094  00000-0  86780-4 0  9997,2 53565  53.2180 249.7995 0001633  90.7476 269.3703 15.08849901 69466,6917.85,95.437,540.845,538.585,0.0
53565.0,STARLINK-4575,PAYLOAD,2023-11-16 01:36:19,15.08844066,0.0001638,53.2176,245.9351,88.3948,271.7232,6.9512e-05,8.19e-06,0.0,0 STARLINK-4575,1 53565U 22101AQ  23320.06689169  .00000819  00000-0  69512-4 0  9990,2 53565  53.2176 245.9351 0001638  88.3948 271.7232 15.08844066 68939,6917.868,95.437,540.866,538.6,0.0
53565.0,STARLINK-4575,PAYLOAD,2023-11-16 04:47:05,15.08849685,0.000168,53.2173,245.3375,110.642,249.4753,7.2075e-05,8.59e-06,0.0,0 STARLINK-4575,1 53565U 22101AQ  23320.19936600  .00000859  00000-0  72075-4 0  9991,2 53565  53.2173 245.3375 0001680 110.6420 249.4753 15.08849685 68951,6917.851,95.437,540.878,538.554,0.0
53565.0,STARLINK-4575,PAYLOAD,2023-11-16 23:51:43,15.08841583,0.0001495,53.2172,241.7683,95.1779,264.9384,6.0689e-05,6.78e-06,0.0,0 STARLINK-4575,1 53565U 22101AQ  23320.99424983  .00000678  00000-0  60689-4 0  9992,2 53565  53.2172 241.7683 0001495  95.1779 264.9384 15.08841583 69075,6917.876,95.437,540.775,538.706,0.0
53565.0,STARLINK-4575,PAYLOAD,2023-11-17 04:37:53,15.08817193,0.0001532,53.2172,240.8758,100.1279,259.9886,0.00040617,6.178e-05,0.0,0 STARLINK-4575,1 53565U 22101AQ  23321.19297584  .00006178  00000-0  40617-3 0  9999,2 53565  53.2172 240.8758 0001532 100.1279 259.9886 15.08817193 69107,6917.95,95.439,540.875,538.755,0.0
53565.0,STARLINK-4575,PAYLOAD,2023-11-18 01:17:53,15.0883477,0.0001806,53.2182,237.0094,106.3861,253.733,-3.0663e-05,-7.76e-06,0.0,0 STARLINK-4575,1 53565U 22101AQ  23322.05409714 -.00000776  00000-0 -30663-4 0  9996,2 53565  53.2182 237.0094 0001806 106.3861 253.7330 15.08834770 69238,6917.896,95.438,541.011,538.512,0.0
53565.0,STARLINK-4575,PAYLOAD,2023-11-18 18:47:08,15.08789312,0.0001947,53.2182,233.7391,100.9418,259.1793,0.00067517,0.00010459,0.0,0 STARLINK-4575,1 53565U 22101AQ  23322.78273604  .00010459  00000-0  67517-3 0  9997,2 53565  53.2182 233.7391 0001947 100.9418 259.1793 15.08789312 69341,6918.035,95.441,541.247,538.553,0.0
53565.0,STARLINK-4575,PAYLOAD,2023-11-19 01:08:40,15.08864555,0.0001575,53.2185,232.5561,98.7419,261.3751,-0.00018185,-3.183e-05,0.0,0 STARLINK-4575,1 53565U 22101AQ  23323.04768575 -.00003183  00000-0 -18185-3 0  9998,2 53565  53.2185 232.5561 0001575  98.7419 261.3751 15.08864555 69388,6917.805,95.436,540.76,538.581,0.0
53565.0,STARLINK-4575,PAYLOAD,2023-11-19 10:40:58,15.08857057,0.0001578,53.2182,230.7703,92.6339,267.4834,-0.00015231,-2.712e-05,0.0,0 STARLINK-4575,1 53565U 22101AQ  23323.44512586 -.00002712  00000-0 -15231-3 0  9997,2 53565  53.2182 230.7703 0001578  92.6339 267.4834 15.08857057 69445,6917.828,95.436,540.785,538.602,0.0
53565.0,STARLINK-4575,PAYLOAD,2023-11-19 21:48:41,15.08834826,0.0001726,53.2189,228.6925,97.219,262.8998,5.1718e-05,5.35e-06,0.0,0 STARLINK-4575,1 53565U 22101AQ  23323.90881816  .00000535  00000-0  51718-4 0  9993,2 53565  53.2189 228.6925 0001726  97.2190 262.8998 15.08834826 70176,6917.896,95.438,540.955,538.567,0.0
53565.0,STARLINK-4575,PAYLOAD,2023-11-20 00:59:28,15.08833966,0.0001732,53.2187,228.0973,95.955,264.164,6.5073e-05,7.48e-06,0.0,0 STARLINK-4575,1 53565U 22101AQ  23324.04129844  .00000748  00000-0  65073-4 0  9990,2 53565  53.2187 228.0973 0001732  95.9550 264.1640 15.08833966 69534,6917.899,95.438,540.962,538.566,0.0
53565.0,STARLINK-4575,PAYLOAD,2023-11-20 10:31:46,15.08836156,0.0001663,53.2181,226.311,89.3549,270.7633,4.9598e-05,5.01e-06,0.0,0 STARLINK-4575,1 53565U 22101AQ  23324.43873840  .00000501  00000-0  49598-4 0  9996,2 53565  53.2181 226.3110 0001663  89.3549 270.7633 15.08836156 70250,6917.892,95.438,540.908,538.607,0.0
53565.0,STARLINK-4575,PAYLOAD,2023-11-20 21:39:28,15.0884498,0.0001613,53.2178,224.2287,86.56,273.5577,2.0771e-05,4.3e-07,0.0,0 STARLINK-4575,1 53565U 22101AQ  23324.90241344  .00000043  00000-0  20771-4 0  9999,2 53565  53.2178 224.2287 0001613  86.5600 273.5577 15.08844980 70320,6917.865,95.437,540.846,538.614,0.0
53565.0,STARLINK-4575,PAYLOAD,2023-11-21 02:25:37,15.08849714,0.0001664,53.2179,223.3372,87.762,272.3563,6.5554e-05,7.56e-06,0.0,0 STARLINK-4575,1 53565U 22101AQ  23325.10112882  .00000756  00000-0  65554-4 0  9995,2 53565  53.2179 223.3372 0001664  87.7620 272.3563 15.08849714 69697,6917.851,95.437,540.867,538.565,0.0
